[Satellite]
VERSION=1.1
NAME=CZ-2C R/B
NICKNAME=CZ-2C R/B
TLE1=1 31114U 07010B   17186.17585220 -.00000015  00000-0  12040-4 0  9999
TLE2=2 31114  98.3971  87.7237 0060043 162.3409 197.9873 14.19245243530053
